[{"OBJECT_NAME":"MONITOR-4 (RS57S)","OBJECT_ID":"2023-091S","EPOCH":"2026-03-09T23:02:36.101184","MEAN_MOTION":15.25833519,"ECCENTRICITY":0.00137053,"INCLINATION":97.5193,"RA_OF_ASC_NODE":131.7407,"ARG_OF_PERICENTER":91.587,"MEAN_ANOMALY":268.6938,"EPHEMERIS_TYPE":0,"CLASSIFICATION_TYPE":"U","NORAD_CAT_ID":57182,"ELEMENT_SET_NO":999,"REV_AT_EPOCH":14915,"BSTAR":0.00052093098,"MEAN_MOTION_DOT":0.000133,"MEAN_MOTION_DDOT":0},{"OBJECT_NAME":"STARLINK-32761","OBJECT_ID":"2025-014Q","EPOCH":"2026-03-09T06:14:54.326400","MEAN_MOTION":15.27586993,"ECCENTRICITY":0.00023423,"INCLINATION":42.9943,"RA_OF_ASC_NODE":160.1054,"ARG_OF_PERICENTER":141.622,"MEAN_ANOMALY":218.4799,"EPHEMERIS_TYPE":0,"CLASSIFICATION_TYPE":"U","NORAD_CAT_ID":62749,"ELEMENT_SET_NO":999,"REV_AT_EPOCH":6315,"BSTAR":0.00094873529,"MEAN_MOTION_DOT":0.00025943,"MEAN_MOTION_DDOT":0}]
